NOOR-2                  
1 51954U 22024A   22092.19590179  .00009543  00000+0  43953-3 0  9997
2 51954  58.2898  44.4751 0013493 289.3095 202.2433 15.20891101  3790
QASED R/B               
1 51955U 22024B   22091.57270534  .00008334  00000+0  38133-3 0  9990
2 51955  58.2949  46.9103 0011260 303.7743  56.2244 15.21294425  3690
STARLINK-3700           
1 51956U 22025A   22091.91667824 -.00130945  00000+0 -94137-3 0  9994
2 51956  53.2183  24.2041 0001178 117.1352 228.8057 15.73244549  3694
STARLINK-3694           
1 51957U 22025B   22092.25001157  .00037663  00000+0  27261-3 0  9999
2 51957  53.2173  22.5478 0001276 115.4093 322.7295 15.73109932  5013
STARLINK-3692           
1 51958U 22025C   22092.25001157  .00023563  00000+0  17231-3 0  9990
2 51958  53.2174  22.5531 0001127 121.9811 313.4374 15.73134278  4992
STARLINK-3704           
1 51959U 22025D   22092.25001157 -.00027509  00000+0 -19275-3 0  9997
2 51959  53.2169  22.5473 0001215 114.1745 323.2628 15.73137128  4998
STARLINK-3691           
1 51960U 22025E   22091.91667824 -.00094819  00000+0 -67832-3 0  9990
2 51960  53.2185  24.1963 0001226 128.3560 221.4177 15.73217065  3697
STARLINK-3689           
1 51961U 22025F   22092.25001157 -.00007241  00000+0 -47358-4 0  9995
2 51961  53.2172  22.5507 0001287 113.9426 322.2195 15.73132109  5011
STARLINK-3697           
1 51962U 22025G   22092.25001157 -.00001108  00000+0 -34957-5 0  9994
2 51962  53.2167  22.5438 0001236 126.8765 313.1811 15.73127622  5010
STARLINK-3675           
1 51963U 22025H   22091.91667824 -.00104920  00000+0 -75190-3 0  9994
2 51963  53.2181  24.1993 0001332 125.7825 222.0709 15.73218419  3694
STARLINK-3690           
1 51964U 22025J   22091.91667824 -.00106657  00000+0 -76329-3 0  9999
2 51964  53.2184  24.1898 0001071 113.5267 239.4314 15.73258420  3697
STARLINK-3696           
1 51965U 22025K   22092.25001157  .00057275  00000+0  41139-3 0  9999
2 51965  53.2173  22.5439 0001315 123.1680 316.1649 15.73104871  4994
STARLINK-3699           
1 51966U 22025L   22091.91667824 -.00085946  00000+0 -61356-3 0  9992
2 51966  53.2186  24.1874 0001341 114.8692 239.3534 15.73224888  3695
STARLINK-3695           
1 51967U 22025M   22091.91667824 -.00094079  00000+0 -67269-3 0  9999
2 51967  53.2183  24.1921 0001603 126.4327 225.2817 15.73224165  3697
STARLINK-3681           
1 51968U 22025N   22092.25001157  .00088655  00000+0  63222-3 0  9995
2 51968  53.2179  22.5349 0000855 110.9476 333.4662 15.73096940  5005
STARLINK-3680           
1 51969U 22025P   22091.91667824 -.00076237  00000+0 -54318-3 0  9998
2 51969  53.2185  24.1909 0001183 109.9910 242.3317 15.73222821  3696
STARLINK-3677           
1 51970U 22025Q   22091.91667824 -.00091466  00000+0 -65356-3 0  9995
2 51970  53.2188  24.1830 0000965 106.0963 250.6345 15.73230395  3695
STARLINK-3669           
1 51971U 22025R   22091.91667824 -.00088467  00000+0 -63214-3 0  9994
2 51971  53.2184  24.1888 0001300 124.7211 228.8350 15.73215507  3693
STARLINK-3671           
1 51972U 22025S   22091.91667824 -.00095246  00000+0 -68188-3 0  9993
2 51972  53.2191  24.1801 0001386 110.7527 247.3002 15.73201024  3695
STARLINK-3679           
1 51973U 22025T   22091.91667824 -.00105794  00000+0 -75756-3 0  9993
2 51973  53.2186  24.1832 0001147 105.3233 250.8058 15.73240981  3698
STARLINK-3672           
1 51974U 22025U   22091.91667824 -.00048776  00000+0 -34511-3 0  9994
2 51974  53.2188  23.4714 0001741 127.9622 216.8981 15.73199618  3703
STARLINK-3674           
1 51975U 22025V   22091.91667824 -.00123758  00000+0 -88874-3 0  9990
2 51975  53.2187  24.1770 0001079 112.6116 246.6991 15.73243768  3692
STARLINK-3663           
1 51976U 22025W   22092.25001157 -.00514400  00000+0 -38946-2 0  9992
2 51976  53.2174  22.5243 0001100  89.7011 357.9077 15.73171754  5002
STARLINK-3660           
1 51977U 22025X   22091.91667824 -.00059227  00000+0 -42025-3 0  9999
2 51977  53.2187  23.4719 0001301 115.3097 228.9175 15.73216485  3700
STARLINK-3666           
1 51978U 22025Y   22091.91667824 -.00101421  00000+0 -72562-3 0  9993
2 51978  53.2196  24.1730 0001024 109.8931 251.9475 15.73243576  3697
STARLINK-3656           
1 51979U 22025Z   22092.25001157  .00036164  00000+0  26516-3 0  9990
2 51979  53.2176  22.5249 0001068  89.0603 357.3276 15.72825906  5016
STARLINK-3649           
1 51980U 22025AA  22092.16667824 -.00056542  00000+0 -40172-3 0  9999
2 51980  53.2189  22.9331 0001281  98.6386 241.2065 15.73167450  4985
STARLINK-3635           
1 51981U 22025AB  22092.16667824 -.00537456  00000+0 -40485-2 0  9994
2 51981  53.2184  22.9358 0001022 102.9144 233.6701 15.73354482  4990
STARLINK-3650           
1 51982U 22025AC  22091.91667824 -.00118961  00000+0 -85361-3 0  9996
2 51982  53.2177  24.1689 0001051 106.4856 257.3263 15.73244424  3691
STARLINK-3655           
1 51983U 22025AD  22092.16667824 -.00073517  00000+0 -52462-3 0  9998
2 51983  53.2178  22.9364 0001095  88.3237 249.6164 15.73172210  5013
STARLINK-3664           
1 51984U 22025AE  22091.91667824 -.00721798  00000+0 -56590-2 0  9997
2 51984  53.2176  24.1490 0001016  98.8030 266.4511 15.72938921  3699
STARLINK-3651           
1 51985U 22025AF  22091.91667824 -.00111331  00000+0 -79773-3 0  9993
2 51985  53.2195  24.1706 0001242 110.9421 251.5524 15.73247579  3694
STARLINK-3645           
1 51986U 22025AG  22092.16667824 -.00720528  00000+0 -56792-2 0  9991
2 51986  53.2174  22.9117 0001077 104.4000 238.7308 15.72811132  4982
STARLINK-3644           
1 51987U 22025AH  22091.91667824 -.00721574  00000+0 -57194-2 0  9993
2 51987  53.2176  24.1494 0001144 119.8737 243.8635 15.72683176  3691
STARLINK-3640           
1 51988U 22025AJ  22092.16667824 -.00720605  00000+0 -56487-2 0  9990
2 51988  53.2174  22.9111 0001084 106.1078 237.7622 15.72938976  5008
STARLINK-3642           
1 51989U 22025AK  22091.91667824 -.00721726  00000+0 -56896-2 0  9992
2 51989  53.2176  24.1491 0001010  96.6498 267.8650 15.72811092  3691
STARLINK-3657           
1 51990U 22025AL  22092.16667824 -.00046164  00000+0 -32687-3 0  9991
2 51990  53.2173  22.9217 0001190 102.7551 242.8470 15.73160248  4998
STARLINK-3652           
1 51991U 22025AM  22092.16667824 -.00720563  00000+0 -57108-2 0  9998
2 51991  53.2174  22.9120 0001057  97.4160 244.9373 15.72683362  4981
STARLINK-3643           
1 51992U 22025AN  22091.91667824 -.00100986  00000+0 -72307-3 0  9991
2 51992  53.2177  24.1549 0001340 117.7244 253.1309 15.73222516  3697
STARLINK-3648           
1 51993U 22025AP  22091.91667824  .00182087  00000+0  12997-2 0  9990
2 51993  53.2179  24.1483 0001038  96.4623 271.8311 15.72729041  3699
STARLINK-3647           
1 51994U 22025AQ  22092.25001157  .00078706  00000+0  56187-3 0  9992
2 51994  53.2176  22.5066 0001054 106.0832 354.3283 15.73120254  5019
STARLINK-3636           
1 51995U 22025AR  22092.16667824 -.00029640  00000+0 -20800-3 0  9990
2 51995  53.2180  22.9202 0001050 108.0703 238.1899 15.73146488  4980
STARLINK-3538           
1 51996U 22025AS  22092.25001157  .00081318  00000+0  58052-3 0  9990
2 51996  53.2173  22.5015 0001124  92.1642   8.8161 15.73107131  5008
STARLINK-3589           
1 51997U 22025AT  22092.16667824 -.00008343  00000+0 -55258-4 0  9995
2 51997  53.2171  22.9174 0001017 112.1916 234.7684 15.73130573  4987
STARLINK-3618           
1 51998U 22025AU  22092.16667824 -.00053678  00000+0 -38152-3 0  9990
2 51998  53.2178  22.9126 0001305 101.4120 248.6709 15.73136719  4980
STARLINK-3667           
1 51999U 22025AV  22092.16667824 -.00020929  00000+0 -14536-3 0  9994
2 51999  53.2173  22.9134 0001264  99.7395 249.6664 15.73154581  4980
STARLINK-3653           
1 52000U 22025AW  22091.91667824 -.00115159  00000+0 -82650-3 0  9992
2 52000  53.2184  24.1479 0001268 121.6922 252.9560 15.73224452  3691
STARLINK-3659           
1 52001U 22025AX  22091.91667824 -.00086913  00000+0 -61950-3 0  9998
2 52001  53.2175  24.1480 0001215 116.0458 257.9989 15.73266037  3693
STARLINK-3668           
1 52002U 22025AY  22092.16667824 -.00058411  00000+0 -41554-3 0  9997
2 52002  53.2180  22.9111 0001076 112.6310 239.3883 15.73151289  4983
STARLINK-3654           
1 52003U 22025AZ  22091.91667824 -.00087447  00000+0 -62409-3 0  9993
2 52003  53.2192  24.1447 0001023 108.9000 267.0117 15.73239841  3695
FALCON 9 DEB            
1 52004U 22025BA  22092.03900400  .00474316  10523-3  10325-2 0  9995
2 52004  53.2282  21.3271 0005230 288.5100  71.5362 15.97725269  3904
FALCON 9 DEB            
1 52005U 22025BB  22092.09112691  .00525178  13011-3  10519-2 0  9992
2 52005  53.2236  20.9271 0006427 264.0123  96.0176 15.99185926  3910
FALCON 9 DEB            
1 52006U 22025BC  22092.19839624  .00454858  10049-3  85747-3 0  9996
2 52006  53.2219  20.1529 0008724 291.4060  68.6041 16.00221159  3936
FALCON 9 DEB            
1 52007U 22025BD  22092.19603085  .00487550  11448-3  91657-3 0  9993
2 52007  53.2184  20.1335 0009593 277.8669  82.1274 16.00247264  3935
2022-026A               
1 52008U 22026A   22091.78727017  .00017664  00000+0  81089-3 0  9992
2 52008  97.4878  92.8099 0048243 211.3684 148.4671 15.19410148  2606
SPACEBEE-121            
1 52009U 22026B   22091.51912908  .00014944  00000+0  82033-3 0  9997
2 52009  97.5028  92.4258 0028626 175.7982 184.3496 15.13877785  2540
SPACEBEE-114            
1 52010U 22026C   22091.51978772  .00013896  00000+0  76497-3 0  9992
2 52010  97.5042  92.4264 0027848 178.2701 181.8632 15.13813021  2555
SPACEBEE-126            
1 52011U 22026D   22091.52021792  .00014088  00000+0  77617-3 0  9994
2 52011  97.5029  92.4243 0028320 175.7265 184.4213 15.13769264  2543
SPACEBEE-118            
1 52012U 22026E   22091.98194759  .00017560  00000+0  96298-3 0  9993
2 52012  97.5044  92.8847 0027438 177.7549 182.3811 15.13906752  2626
